norad_id,name,regime,epoch,line1,line2,inclination,eccentricity,mean_motion,raan,arg_pericenter,mean_anomaly
44333,AT&T T-16,GEO,23049.38035476,1 44333U 19034A   23049.38035476 -.00000124  00000-0  00000+0 0  8264,2 44333   0.0244 121.9970 0001128  48.7698  13.3968  1.00265354 13451,0.0244,0.0001128,1.00265354,121.997,48.7698,13.3968
44333,AT&T T-16,GEO,23049.47413942,1 44333U 19034A   23049.47413942 -.00000124  00000-0  00000-0 0    18,2 44333   0.0249 122.0599 0001017  61.8868  34.0744  1.00268395 13457,0.0249,0.0001017,1.00268395,122.0599,61.8868,34.0744
44333,AT&T T-16,GEO,23049.68895115,1 44333U 19034A   23049.68895115 -.00000126  00000-0  00000+0 0  8274,2 44333   0.0255 124.2955 0000861  55.8536 115.4178  1.00271208 13457,0.0255,8.61e-05,1.00271208,124.2955,55.8536,115.4178
44333,AT&T T-16,GEO,23050.38034071,1 44333U 19034A   23050.38034071 -.00000127  00000-0  00000-0 0    15,2 44333   0.0250 127.0467 0000505  61.8975 356.2014  1.00266962 13466,0.025,5.05e-05,1.00266962,127.0467,61.8975,356.2014
44333,AT&T T-16,GEO,23051.21785616,1 44333U 19034A   23051.21785616 -.00000129  00000-0  00000+0 0  8295,2 44333   0.0266 128.5498 0000642  76.7721 282.1498  1.00267683 13463,0.0266,6.42e-05,1.00267683,128.5498,76.7721,282.1498
44333,AT&T T-16,GEO,23051.53461943,1 44333U 19034A   23051.53461943 -.00000129  00000-0  00000-0 0    17,2 44333   0.0272 128.3634 0000659  79.6929  33.7593  1.00267671 13474,0.0272,6.59e-05,1.00267671,128.3634,79.6929,33.7593
44333,AT&T T-16,GEO,23052.36160576,1 44333U 19034A   23052.36160576 -.00000130  00000-0  00000+0 0  8308,2 44333   0.0137 112.9624 0000596  89.3916 337.9510  1.00269500 13477,0.0137,5.96e-05,1.002695,112.9624,89.3916,337.951
44333,AT&T T-16,GEO,23052.48616341,1 44333U 19034A   23052.48616341 -.00000129  00000-0  00000-0 0    16,2 44333   0.0057 148.7504 0000601  54.0137  22.5035  1.00269500 13483,0.0057,6.01e-05,1.002695,148.7504,54.0137,22.5035
44333,AT&T T-16,GEO,23052.65675463,1 44333U 19034A   23052.65675463 -.00000129  00000-0  00000-0 0    15,2 44333   0.0105 128.8821 0000611  74.6299  83.3353  1.00269509 13483,0.0105,6.11e-05,1.00269509,128.8821,74.6299,83.3353
44333,AT&T T-16,GEO,23053.32757685,1 44333U 19034A   23053.32757685 -.00000128  00000-0  00000-0 0    16,2 44333   0.0198 116.4034 0000484  78.5580 334.0376  1.00269497 13496,0.0198,4.84e-05,1.00269497,116.4034,78.558,334.0376
44333,AT&T T-16,GEO,23054.37827091,1 44333U 19034A   23054.37827091 -.00000128  00000-0  00000+0 0  8333,2 44333   0.0208 123.9127 0000828  94.1071 330.2677  1.00276434 13496,0.0208,8.28e-05,1.00276434,123.9127,94.1071,330.2677
44333,AT&T T-16,GEO,23054.42341080,1 44333U 19034A   23054.42341080 -.00000127  00000-0  00000-0 0    15,2 44333   0.0207 124.4162 0000804  92.6604 347.5061  1.00276097 13504,0.0207,8.04e-05,1.00276097,124.4162,92.6604,347.5061
44333,AT&T T-16,GEO,23054.63394025,1 44333U 19034A   23054.63394025 -.00000126  00000-0  00000-0 0    14,2 44333   0.0197 120.3896 0000732  83.6802  76.5107  1.00273863 13509,0.0197,7.32e-05,1.00273863,120.3896,83.6802,76.5107
44333,AT&T T-16,GEO,23055.17335972,1 44333U 19034A   23055.17335972 -.00000125  00000-0  00000-0 0    19,2 44333   0.0200 120.7944 0000752  72.2355 282.2754  1.00273473 13513,0.02,7.52e-05,1.00273473,120.7944,72.2355,282.2754
44333,AT&T T-16,GEO,23055.85614250,1 44333U 19034A   23055.85614250 -.00000124  00000-0  00000-0 0    12,2 44333   0.0192 133.8070 0000920  74.3275 153.6496  1.00273042 13515,0.0192,9.2e-05,1.00273042,133.807,74.3275,153.6496
44333,AT&T T-16,GEO,23056.54079799,1 44333U 19034A   23056.54079799 -.00000125  00000-0  00000-0 0    13,2 44333   0.0221 124.3214 0000236 195.6118 289.0444  1.00290359 13524,0.0221,2.36e-05,1.00290359,124.3214,195.6118,289.0444
44333,AT&T T-16,GEO,23056.60938383,1 44333U 19034A   23056.60938383 -.00000122  00000-0  00000-0 0    10,2 44333   0.0228 128.9020 0001116  78.7264  66.0953  1.00267542 13523,0.0228,0.0001116,1.00267542,128.902,78.7264,66.0953
44333,AT&T T-16,GEO,23057.46277524,1 44333U 19034A   23057.46277524 -.00000121  00000-0  00000+0 0  8384,2 44333   0.0160 131.1694 0001217  75.2380  15.3536  1.00268295 13535,0.016,0.0001217,1.00268295,131.1694,75.238,15.3536
44333,AT&T T-16,GEO,23057.53532730,1 44333U 19034A   23057.53532730 -.00000121  00000-0  00000-0 0    18,2 44333   0.0157 135.5755 0001238  72.4855  39.8902  1.00268655 13534,0.0157,0.0001238,1.00268655,135.5755,72.4855,39.8902
44333,AT&T T-16,GEO,23057.64904457,1 44333U 19034A   23057.64904457 -.00000121  00000-0  00000-0 0    19,2 44333   0.0156 133.9065 0001127  77.2493  77.8465  1.00270696 13531,0.0156,0.0001127,1.00270696,133.9065,77.2493,77.8465
44333,AT&T T-16,GEO,23058.43782734,1 44333U 19034A   23058.43782734 -.00000120  00000-0  00000-0 0    18,2 44333   0.0164 138.9621 0000790  90.8891 343.8894  1.00269621 13540,0.0164,7.9e-05,1.00269621,138.9621,90.8891,343.8894
44333,AT&T T-16,GEO,23058.50947683,1 44333U 19034A   23058.50947683 -.00000120  00000-0  00000-0 0    12,2 44333   0.0158 136.5322 0000740  92.8447  10.2272  1.00269667 13544,0.0158,7.4e-05,1.00269667,136.5322,92.8447,10.2272
44333,AT&T T-16,GEO,23059.08317038,1 44333U 19034A   23059.08317038 -.00000121  00000-0  00000+0 0  8402,2 44333   0.0163 132.7462 0000614  91.9249 222.0236  1.00269549 13545,0.0163,6.14e-05,1.00269549,132.7462,91.9249,222.0236
44333,AT&T T-16,GEO,23059.53133951,1 44333U 19034A   23059.53133951 -.00000120  00000-0  00000-0 0    11,2 44333   0.0166 128.2156 0000685 100.0967  20.1609  1.00269581 13553,0.0166,6.85e-05,1.00269581,128.2156,100.0967,20.1609
44333,AT&T T-16,GEO,23059.87199270,1 44333U 19034A   23059.87199270 -.00000120  00000-0  00000-0 0    14,2 44333   0.0184 139.1942 0000750  89.5336 142.7144  1.00269465 13557,0.0184,7.5e-05,1.00269465,139.1942,89.5336,142.7144
44333,AT&T T-16,GEO,23060.08711545,1 44333U 19034A   23060.08711545 -.00000121  00000-0  00000+0 0  8416,2 44333   0.0185 138.4192 0000744  90.9860 219.6913  1.00269471 13553,0.0185,7.44e-05,1.00269471,138.4192,90.986,219.6913
44333,AT&T T-16,GEO,23060.66077744,1 44333U 19034A   23060.66077744 -.00000120  00000-0  00000-0 0    14,2 44333   0.0180 133.9574 0000731  94.5875  67.6311  1.00269479 13566,0.018,7.31e-05,1.00269479,133.9574,94.5875,67.6311
44333,AT&T T-16,GEO,23061.66468411,1 44333U 19034A   23061.66468411 -.00000121  00000-0  00000-0 0    11,2 44333   0.0182 133.1914 0001033  80.6804  84.7078  1.00272704 13578,0.0182,0.0001033,1.00272704,133.1914,80.6804,84.7078
44333,AT&T T-16,GEO,23062.23348632,1 44333U 19034A   23062.23348632 -.00000122  00000-0  00000-0 0    18,2 44333   0.0190 138.5556 0001082  96.7438 268.6179  1.00278651 13586,0.019,0.0001082,1.00278651,138.5556,96.7438,268.6179
44333,AT&T T-16,GEO,23063.16129237,1 44333U 19034A   23063.16129237 -.00000120  00000-0  00000-0 0    17,2 44333   0.0269 142.7322 0000660  76.6915 259.4512  1.00267785 13595,0.0269,6.6e-05,1.00267785,142.7322,76.6915,259.4512
44333,AT&T T-16,GEO,23063.67257042,1 44333U 19034A   23063.67257042 -.00000120  00000-0  00000+0 0  8454,2 44333   0.0259 146.4920 0000957  63.2703  93.6824  1.00270688 13584,0.0259,9.57e-05,1.00270688,146.492,63.2703,93.6824
44333,AT&T T-16,GEO,23063.88757435,1 44333U 19034A   23063.88757435 -.00000120  00000-0  00000-0 0    13,2 44333   0.0262 145.9848 0000799  61.0714 174.0059  1.00272752 13592,0.0262,7.99e-05,1.00272752,145.9848,61.0714,174.0059
44333,AT&T T-16,GEO,23064.53617140,1 44333U 19034A   23064.53617140 -.00000118  00000-0  00000-0 0    11,2 44333   0.0243 155.4469 0001250  51.7374  48.0105  1.00266154 13600,0.0243,0.000125,1.00266154,155.4469,51.7374,48.0105
44333,AT&T T-16,GEO,23064.60473611,1 44333U 19034A   23064.60473611 -.00000118  00000-0  00000-0 0    12,2 44333   0.0245 155.7683 0001180  53.2398  70.9382  1.00267529 13606,0.0245,0.000118,1.00267529,155.7683,53.2398,70.9382
44333,AT&T T-16,GEO,23065.03495828,1 44333U 19034A   23065.03495828 -.00000118  00000-0  00000+0 0  8460,2 44333   0.0249 155.4543 0000904  52.1685 227.6326  1.00271232 13607,0.0249,9.04e-05,1.00271232,155.4543,52.1685,227.6326
44333,AT&T T-16,GEO,23065.10665799,1 44333U 19034A   23065.10665799 -.00000118  00000-0  00000-0 0    18,2 44333   0.0251 155.7577 0000927  53.3404 252.0395  1.00270832 13611,0.0251,9.27e-05,1.00270832,155.7577,53.3404,252.0395
44333,AT&T T-16,GEO,23066.39745029,1 44333U 19034A   23066.39745029 -.00000115  00000-0  00000+0 0  8479,2 44333   0.0249 159.9940 0000435  59.0048 348.0785  1.00268531 13611,0.0249,4.35e-05,1.00268531,159.994,59.0048,348.0785
44333,AT&T T-16,GEO,23066.61255273,1 44333U 19034A   23066.61255273 -.00000114  00000-0  00000-0 0    13,2 44333   0.0250 160.0150 0000497  53.9168  70.7930  1.00267828 13623,0.025,4.97e-05,1.00267828,160.015,53.9168,70.793
44333,AT&T T-16,GEO,23067.43972044,1 44333U 19034A   23067.43972044 -.00000112  00000-0  00000+0 0  8482,2 44333   0.0252 158.1234 0000583  54.9304  10.2564  1.00266862 13624,0.0252,5.83e-05,1.00266862,158.1234,54.9304,10.2564
44333,AT&T T-16,GEO,23067.62549399,1 44333U 19034A   23067.62549399 -.00000111  00000-0  00000-0 0    17,2 44333   0.0250 157.8782 0000580  54.1090  78.3823  1.00266820 13635,0.025,5.8e-05,1.0026682,157.8782,54.109,78.3823
44333,AT&T T-16,GEO,23067.97501542,1 44333U 19034A   23067.97501542 -.00000111  00000-0  00000+0 0  8492,2 44333   0.0250 156.8130 0000412  55.4747 204.2527  1.00268173 13632,0.025,4.12e-05,1.00268173,156.813,55.4747,204.2527
44333,AT&T T-16,GEO,23068.24639906,1 44333U 19034A   23068.24639906 -.00000111  00000-0  00000-0 0    10,2 44333   0.0248 156.6715 0000517  34.0015 323.8358  1.00270705 13648,0.0248,5.17e-05,1.00270705,156.6715,34.0015,323.8358
44333,AT&T T-16,GEO,23069.47890093,1 44333U 19034A   23069.47890093 -.00000109  00000-0  00000+0 0  8511,2 44333   0.0217 166.6702 0000978  26.1343  46.6299  1.00269269 13645,0.0217,9.78e-05,1.00269269,166.6702,26.1343,46.6299
